start=new Date('2023-07-03T00:00:00.000Z').valueOf();
sats=[{"OBJECT_ID":"2021-027N","RA_OF_ASC_NODE":"241.6695","SITE":"AFETR","OBJECT_NAME":"STARLINK-2439","LAUNCH_DATE":"2021-04-07","REV_AT_EPOCH":"12433","MEAN_MOTION_DDOT":"0.0000000000000","MEAN_ANOMALY":"269.0921","RCS_SIZE":"LARGE","TLE_LINE2":"2 48104  53.0525 241.6695 0000950  91.0177 269.0921 15.06394413124339","MEAN_ELEMENT_THEORY":"SGP4","EPHEMERIS_TYPE":"0","INCLINATION":"53.0525","TLE_LINE1":"1 48104U 21027N   23183.42959176 -.00002452  00000-0 -14580-3 0  9995","COUNTRY_CODE":"US","APOAPSIS":"547.889","DECAY_DATE":null,"PERIAPSIS":"546.573","TIME_SYSTEM":"UTC","ELEMENT_SET_NO":"999","GP_ID":"234669630","FILE":"3947554","ECCENTRICITY":"0.00009500","CENTER_NAME":"EARTH","ARG_OF_PERICENTER":"91.0177","MEAN_MOTION_DOT":"-0.00002452","BSTAR":"-0.00014580000000","SEMIMAJOR_AXIS":"6925.366","MEAN_MOTION":"15.06394413","REF_FRAME":"TEME","OBJECT_TYPE":"PAYLOAD","NORAD_CAT_ID":"48104","CLASSIFICATION_TYPE":"U","EPOCH":"2023-07-02T10:18:36.728064","PERIOD":"95.592"},{"DECAY_DATE":null,"PERIAPSIS":"546.353","TLE_LINE1":"1 48105U 21027P   23183.40332920  .00000737  00000-0  68387-4 0  9993","COUNTRY_CODE":"US","APOAPSIS":"548.087","INCLINATION":"53.0541","ELEMENT_SET_NO":"999","GP_ID":"234669642","TIME_SYSTEM":"UTC","LAUNCH_DATE":"2021-04-07","SITE":"AFETR","OBJECT_NAME":"STARLINK-2440","OBJECT_ID":"2021-027P","RA_OF_ASC_NODE":"186.7843","EPHEMERIS_TYPE":"0","MEAN_ELEMENT_THEORY":"SGP4","TLE_LINE2":"2 48105  53.0541 186.7843 0001252  81.8048 278.3083 15.06397867125094","MEAN_ANOMALY":"278.3083","RCS_SIZE":"LARGE","REV_AT_EPOCH":"12509","MEAN_MOTION_DDOT":"0.0000000000000","OBJECT_TYPE":"PAYLOAD","NORAD_CAT_ID":"48105","REF_FRAME":"TEME","SEMIMAJOR_AXIS":"6925.355","MEAN_MOTION":"15.06397867","PERIOD":"95.592","CLASSIFICATION_TYPE":"U","EPOCH":"2023-07-02T09:40:47.642880","CENTER_NAME":"EARTH","ECCENTRICITY":"0.00012520","FILE":"3947554","BSTAR":"0.00006838700000","MEAN_MOTION_DOT":"0.00000737","ARG_OF_PERICENTER":"81.8048"},{"COUNTRY_CODE":"US","TLE_LINE1":"1 48106U 21027Q   23183.45401227 -.00000549  00000-0 -17987-4 0  9999","APOAPSIS":"548.012","INCLINATION":"53.0533","DECAY_DATE":null,"PERIAPSIS":"546.486","TIME_SYSTEM":"UTC","ELEMENT_SET_NO":"999","GP_ID":"234671293","RA_OF_ASC_NODE":"236.5668","OBJECT_ID":"2021-027Q","OBJECT_NAME":"STARLINK-2442","SITE":"AFETR","LAUNCH_DATE":"2021-04-07","REV_AT_EPOCH":"12440","MEAN_MOTION_DDOT":"0.0000000000000","MEAN_ANOMALY":"271.5349","RCS_SIZE":"LARGE","TLE_LINE2":"2 48106  53.0533 236.5668 0001102  88.5766 271.5349 15.06388441124402","EPHEMERIS_TYPE":"0","MEAN_ELEMENT_THEORY":"SGP4","SEMIMAJOR_AXIS":"6925.384","MEAN_MOTION":"15.06388441","REF_FRAME":"TEME","OBJECT_TYPE":"PAYLOAD","NORAD_CAT_ID":"48106","EPOCH":"2023-07-02T10:53:46.660128","CLASSIFICATION_TYPE":"U","PERIOD":"95.593","FILE":"3947631","ECCENTRICITY":"0.00011020","CENTER_NAME":"EARTH","ARG_OF_PERICENTER":"88.5766","MEAN_MOTION_DOT":"-0.00000549","BSTAR":"-0.00001798700000"},{"GP_ID":"234667774","ELEMENT_SET_NO":"999","TIME_SYSTEM":"UTC","DECAY_DATE":null,"PERIAPSIS":"546.571","COUNTRY_CODE":"US","TLE_LINE1":"1 48107U 21027R   23183.40240611 -.00001891  00000-0 -10811-3 0  9992","INCLINATION":"53.0529","APOAPSIS":"547.876","EPHEMERIS_TYPE":"0","MEAN_ELEMENT_THEORY":"SGP4","TLE_LINE2":"2 48107  53.0529 236.7893 0000942  87.2264 272.8832 15.06396816124394","RCS_SIZE":"LARGE","MEAN_ANOMALY":"272.8832","MEAN_MOTION_DDOT":"0.0000000000000","REV_AT_EPOCH":"12439","LAUNCH_DATE":"2021-04-07","OBJECT_NAME":"STARLINK-2443","SITE":"AFETR","RA_OF_ASC_NODE":"236.7893","OBJECT_ID":"2021-027R","PERIOD":"95.592","CLASSIFICATION_TYPE":"U","EPOCH":"2023-07-02T09:39:27.887904","NORAD_CAT_ID":"48107","OBJECT_TYPE":"PAYLOAD","REF_FRAME":"TEME","MEAN_MOTION":"15.06396816","SEMIMAJOR_AXIS":"6925.358","BSTAR":"-0.00010811000000","MEAN_MOTION_DOT":"-0.00001891","ARG_OF_PERICENTER":"87.2264","CENTER_NAME":"EARTH","ECCENTRICITY":"0.00009420","FILE":"3947479"},{"PERIOD":"95.593","EPOCH":"2023-07-01T21:52:13.859328","CLASSIFICATION_TYPE":"U","NORAD_CAT_ID":"48108","OBJECT_TYPE":"PAYLOAD","MEAN_MOTION":"15.06388946","SEMIMAJOR_AXIS":"6925.382","REF_FRAME":"TEME","BSTAR":"0.00033212000000","ARG_OF_PERICENTER":"92.2244","MEAN_MOTION_DOT":"0.00004668","CENTER_NAME":"EARTH","FILE":"3947296","ECCENTRICITY":"0.00010240","TIME_SYSTEM":"UTC","GP_ID":"234662955","ELEMENT_SET_NO":"999","TLE_LINE1":"1 48108U 21027S   23182.91127152  .00004668  00000-0  33212-3 0  9995","COUNTRY_CODE":"US","APOAPSIS":"547.957","INCLINATION":"53.0534","DECAY_DATE":null,"PERIAPSIS":"546.538","TLE_LINE2":"2 48108  53.0534 248.9957 0001024  92.2244 267.8862 15.06388946124182","MEAN_ELEMENT_THEORY":"SGP4","EPHEMERIS_TYPE":"0","MEAN_MOTION_DDOT":"0.0000000000000","REV_AT_EPOCH":"12418","RCS_SIZE":"LARGE","MEAN_ANOMALY":"267.8862","SITE":"AFETR","OBJECT_NAME":"STARLINK-2444","LAUNCH_DATE":"2021-04-07","RA_OF_ASC_NODE":"248.9957","OBJECT_ID":"2021-027S"},{"EPOCH":"2023-07-02T10:56:25.681920","CLASSIFICATION_TYPE":"U","PERIOD":"95.593","SEMIMAJOR_AXIS":"6925.373","MEAN_MOTION":"15.06391949","REF_FRAME":"TEME","OBJECT_TYPE":"PAYLOAD","NORAD_CAT_ID":"48109","ARG_OF_PERICENTER":"92.7584","MEAN_MOTION_DOT":"-0.00001499","BSTAR":"-0.00008179700000","ECCENTRICITY":"0.00008880","FILE":"3947482","CENTER_NAME":"EARTH","TIME_SYSTEM":"UTC","ELEMENT_SET_NO":"999","GP_ID":"234668045","TLE_LINE1":"1 48109U 21027T   23183.45585280 -.00001499  00000-0 -81797-4 0  9999","COUNTRY_CODE":"US","APOAPSIS":"547.853","INCLINATION":"53.0540","PERIAPSIS":"546.623","DECAY_DATE":null,"REV_AT_EPOCH":"12412","MEAN_MOTION_DDOT":"0.0000000000000","RCS_SIZE":"LARGE","MEAN_ANOMALY":"267.3506","TLE_LINE2":"2 48109  53.0540 256.5486 0000888  92.7584 267.3506 15.06391949124122","EPHEMERIS_TYPE":"0","MEAN_ELEMENT_THEORY":"SGP4","OBJECT_ID":"2021-027T","RA_OF_ASC_NODE":"256.5486","SITE":"AFETR","OBJECT_NAME":"STARLINK-2445","LAUNCH_DATE":"2021-04-07"},{"DECAY_DATE":null,"PERIAPSIS":"546.493","COUNTRY_CODE":"US","TLE_LINE1":"1 48110U 21027U   23183.43097044 -.00000757  00000-0 -31913-4 0  9996","APOAPSIS":"547.938","INCLINATION":"53.0525","ELEMENT_SET_NO":"999","GP_ID":"234670144","TIME_SYSTEM":"UTC","RA_OF_ASC_NODE":"246.6595","OBJECT_ID":"2021-027U","LAUNCH_DATE":"2021-04-07","SITE":"AFETR","OBJECT_NAME":"STARLINK-2447","RCS_SIZE":"LARGE","MEAN_ANOMALY":"276.6354","MEAN_MOTION_DDOT":"0.0000000000000","REV_AT_EPOCH":"12426","EPHEMERIS_TYPE":"0","MEAN_ELEMENT_THEORY":"SGP4","TLE_LINE2":"2 48110  53.0525 246.6595 0001043  83.4754 276.6354 15.06399304124260","REF_FRAME":"TEME","MEAN_MOTION":"15.06399304","SEMIMAJOR_AXIS":"6925.351","NORAD_CAT_ID":"48110","OBJECT_TYPE":"PAYLOAD","EPOCH":"2023-07-02T10:20:35.846016","CLASSIFICATION_TYPE":"U","PERIOD":"95.592","FILE":"3947564","ECCENTRICITY":"0.00010430","CENTER_NAME":"EARTH","MEAN_MOTION_DOT":"-0.00000757","ARG_OF_PERICENTER":"83.4754","BSTAR":"-0.00003191300000"},{"BSTAR":"-0.00027064000000","ARG_OF_PERICENTER":"68.8007","MEAN_MOTION_DOT":"-0.00004309","CENTER_NAME":"EARTH","FILE":"3947555","ECCENTRICITY":"0.00007560","PERIOD":"95.593","EPOCH":"2023-07-02T10:09:59.066784","CLASSIFICATION_TYPE":"U","OBJECT_TYPE":"PAYLOAD","NORAD_CAT_ID":"48111","SEMIMAJOR_AXIS":"6925.383","MEAN_MOTION":"15.06388860","REF_FRAME":"TEME","TLE_LINE2":"2 48111  53.0541 246.6654 0000756  68.8007 291.3063 15.06388860124269","EPHEMERIS_TYPE":"0","MEAN_ELEMENT_THEORY":"SGP4","REV_AT_EPOCH":"12426","MEAN_MOTION_DDOT":"0.0000000000000","MEAN_ANOMALY":"291.3063","RCS_SIZE":"LARGE","OBJECT_NAME":"STARLINK-2448","SITE":"AFETR","LAUNCH_DATE":"2021-04-07","RA_OF_ASC_NODE":"246.6654","OBJECT_ID":"2021-027V","TIME_SYSTEM":"UTC","ELEMENT_SET_NO":"999","GP_ID":"234670158","TLE_LINE1":"1 48111U 21027V   23183.42360031 -.00004309  00000-0 -27064-3 0  9993","COUNTRY_CODE":"US","APOAPSIS":"547.771","INCLINATION":"53.0541","PERIAPSIS":"546.724","DECAY_DATE":null},{"LAUNCH_DATE":"2021-04-07","OBJECT_NAME":"STARLINK-2449","SITE":"AFETR","RA_OF_ASC_NODE":"261.5896","OBJECT_ID":"2021-027W","EPHEMERIS_TYPE":"0","MEAN_ELEMENT_THEORY":"SGP4","TLE_LINE2":"2 48112  53.0539 261.5896 0001098  95.9342 264.1772 15.06388933124057","MEAN_ANOMALY":"264.1772","RCS_SIZE":"LARGE","REV_AT_EPOCH":"12405","MEAN_MOTION_DDOT":"0.0000000000000","PERIAPSIS":"546.487","DECAY_DATE":null,"COUNTRY_CODE":"US","TLE_LINE1":"1 48112U 21027W   23183.48305405 -.00000762  00000-0 -32260-4 0  9998","APOAPSIS":"548.008","INCLINATION":"53.0539","ELEMENT_SET_NO":"999","GP_ID":"234670224","TIME_SYSTEM":"UTC","CENTER_NAME":"EARTH","ECCENTRICITY":"0.00010980","FILE":"3947559","BSTAR":"-0.00003226000000","MEAN_MOTION_DOT":"-0.00000762","ARG_OF_PERICENTER":"95.9342","OBJECT_TYPE":"PAYLOAD","NORAD_CAT_ID":"48112","REF_FRAME":"TEME","SEMIMAJOR_AXIS":"6925.382","MEAN_MOTION":"15.06388933","PERIOD":"95.593","CLASSIFICATION_TYPE":"U","EPOCH":"2023-07-02T11:35:35.869920"},{"LAUNCH_DATE":"2021-04-07","OBJECT_NAME":"STARLINK-2450","SITE":"AFETR","RA_OF_ASC_NODE":"256.7138","OBJECT_ID":"2021-027X","MEAN_ELEMENT_THEORY":"SGP4","EPHEMERIS_TYPE":"0","TLE_LINE2":"2 48113  53.0544 256.7138 0000895  97.6718 262.4373 15.06389692124117","RCS_SIZE":"LARGE","MEAN_ANOMALY":"262.4373","REV_AT_EPOCH":"12411","MEAN_MOTION_DDOT":"0.0000000000000","DECAY_DATE":null,"PERIAPSIS":"546.625","TLE_LINE1":"1 48113U 21027X   23183.41898603 -.00004519  00000-0 -28480-3 0  9991","APOAPSIS":"547.865","COUNTRY_CODE":"US","INCLINATION":"53.0544","GP_ID":"234674189","ELEMENT_SET_NO":"999","TIME_SYSTEM":"UTC","CENTER_NAME":"EARTH","FILE":"3947744","ECCENTRICITY":"0.00008950","BSTAR":"-0.00028480000000","MEAN_MOTION_DOT":"-0.00004519","ARG_OF_PERICENTER":"97.6718","OBJECT_TYPE":"PAYLOAD","NORAD_CAT_ID":"48113","REF_FRAME":"TEME","SEMIMAJOR_AXIS":"6925.380","MEAN_MOTION":"15.06389692","PERIOD":"95.593","CLASSIFICATION_TYPE":"U","EPOCH":"2023-07-02T10:03:20.392992"}];
